[{"OBJECT_NAME":"JILIN-1 06","OBJECT_ID":"2017-074C","EPOCH":"2026-03-09T22:46:57.173376","MEAN_MOTION":15.32444387,"ECCENTRICITY":0.00061285,"INCLINATION":97.4715,"RA_OF_ASC_NODE":171.0354,"ARG_OF_PERICENTER":223.0031,"MEAN_ANOMALY":137.0732,"EPHEMERIS_TYPE":0,"CLASSIFICATION_TYPE":"U","NORAD_CAT_ID":43024,"ELEMENT_SET_NO":999,"REV_AT_EPOCH":45863,"BSTAR":0.00028431628,"MEAN_MOTION_DOT":8.833e-5,"MEAN_MOTION_DDOT":0},{"OBJECT_NAME":"STARLINK-3690","OBJECT_ID":"2022-025J","EPOCH":"2026-03-09T06:36:44.498592","MEAN_MOTION":15.30191903,"ECCENTRICITY":0.00013974,"INCLINATION":53.1606,"RA_OF_ASC_NODE":26.2078,"ARG_OF_PERICENTER":104.7016,"MEAN_ANOMALY":255.4139,"EPHEMERIS_TYPE":0,"CLASSIFICATION_TYPE":"U","NORAD_CAT_ID":51964,"ELEMENT_SET_NO":999,"REV_AT_EPOCH":22095,"BSTAR":9.893093e-6,"MEAN_MOTION_DOT":-6.6e-7,"MEAN_MOTION_DDOT":0}]
